[
  {
    "OBJECT_NAME": "STARLINK-5433",
    "OBJECT_ID": "22175AM",
    "EPOCH": "2025-11-11T01:50:42.726624",
    "MEAN_MOTION": 15.08841487,
    "ECCENTRICITY": 0.0001928,
    "INCLINATION": 53.2132,
    "RA_OF_ASC_NODE": 191.6071,
    "ARG_OF_PERICENTER": 88.774,
    "MEAN_ANOMALY": 271.3473,
    "EPHEMERIS_TYPE": 0,
    "CLASSIFICATION_TYPE": "U",
    "NORAD_CAT_ID": 54793,
    "ELEMENT_SET_NO": 999,
    "REV_AT_EPOCH": 16236,
    "BSTAR": 3.3272e-05,
    "MEAN_MOTION_DOT": 2.41e-06,
    "MEAN_MOTION_DDOT": 0.0,
    "TLE_LINE1": "1 54793U 22175AM  25315.07688341  .00000241  00000+0  33272-4 0  9995",
    "TLE_LINE2": "2 54793  53.2132 191.6071 0001928  88.7740 271.3473 15.08841487162366",
    "COMMENT": "Grouped by shell and plane from TLE"
  },
  {
    "OBJECT_NAME": "STARLINK-5420",
    "OBJECT_ID": "22175AS",
    "EPOCH": "2025-11-11T01:18:51.948288",
    "MEAN_MOTION": 15.08846411,
    "ECCENTRICITY": 0.0001311,
    "INCLINATION": 53.2171,
    "RA_OF_ASC_NODE": 191.4579,
    "ARG_OF_PERICENTER": 90.6129,
    "MEAN_ANOMALY": 269.5014,
    "EPHEMERIS_TYPE": 0,
    "CLASSIFICATION_TYPE": "U",
    "NORAD_CAT_ID": 54798,
    "ELEMENT_SET_NO": 999,
    "REV_AT_EPOCH": 16236,
    "BSTAR": 0.00016348,
    "MEAN_MOTION_DOT": 2.315e-05,
    "MEAN_MOTION_DDOT": 0.0,
    "TLE_LINE1": "1 54798U 22175AS  25315.05476792  .00002315  00000+0  16348-3 0  9991",
    "TLE_LINE2": "2 54798  53.2171 191.4579 0001311  90.6129 269.5014 15.08846411162366",
    "COMMENT": "Grouped by shell and plane from TLE"
  },
  {
    "OBJECT_NAME": "STARLINK-5421",
    "OBJECT_ID": "22175AT",
    "EPOCH": "2025-11-10T01:54:36.858528",
    "MEAN_MOTION": 15.08842474,
    "ECCENTRICITY": 0.0001365,
    "INCLINATION": 53.2179,
    "RA_OF_ASC_NODE": 196.0341,
    "ARG_OF_PERICENTER": 80.8487,
    "MEAN_ANOMALY": 279.2659,
    "EPHEMERIS_TYPE": 0,
    "CLASSIFICATION_TYPE": "U",
    "NORAD_CAT_ID": 54799,
    "ELEMENT_SET_NO": 999,
    "REV_AT_EPOCH": 16221,
    "BSTAR": 5.0555000000000006e-05,
    "MEAN_MOTION_DOT": 5.17e-06,
    "MEAN_MOTION_DDOT": 0.0,
    "TLE_LINE1": "1 54799U 22175AT  25314.07959327  .00000517  00000+0  50555-4 0  9994",
    "TLE_LINE2": "2 54799  53.2179 196.0341 0001365  80.8487 279.2659 15.08842474162212",
    "COMMENT": "Grouped by shell and plane from TLE"
  },
  {
    "OBJECT_NAME": "STARLINK-5408",
    "OBJECT_ID": "22175BE",
    "EPOCH": "2025-11-11T01:26:09.578112",
    "MEAN_MOTION": 15.08842813,
    "ECCENTRICITY": 0.0001598,
    "INCLINATION": 53.2173,
    "RA_OF_ASC_NODE": 196.4411,
    "ARG_OF_PERICENTER": 89.0724,
    "MEAN_ANOMALY": 271.0451,
    "EPHEMERIS_TYPE": 0,
    "CLASSIFICATION_TYPE": "U",
    "NORAD_CAT_ID": 54810,
    "ELEMENT_SET_NO": 999,
    "REV_AT_EPOCH": 16229,
    "BSTAR": 6.5006e-05,
    "MEAN_MOTION_DOT": 7.47e-06,
    "MEAN_MOTION_DDOT": 0.0,
    "TLE_LINE1": "1 54810U 22175BE  25315.05983308  .00000747  00000+0  65006-4 0  9995",
    "TLE_LINE2": "2 54810  53.2173 196.4411 0001598  89.0724 271.0451 15.08842813162290",
    "COMMENT": "Grouped by shell and plane from TLE"
  },
  {
    "OBJECT_NAME": "STARLINK-5424",
    "OBJECT_ID": "22175BF",
    "EPOCH": "2025-11-11T02:04:41.124576",
    "MEAN_MOTION": 15.08896879,
    "ECCENTRICITY": 0.0001761,
    "INCLINATION": 53.2146,
    "RA_OF_ASC_NODE": 196.5943,
    "ARG_OF_PERICENTER": 99.2771,
    "MEAN_ANOMALY": 260.8421,
    "EPHEMERIS_TYPE": 0,
    "CLASSIFICATION_TYPE": "U",
    "NORAD_CAT_ID": 54811,
    "ELEMENT_SET_NO": 999,
    "REV_AT_EPOCH": 16229,
    "BSTAR": 0.00047636,
    "MEAN_MOTION_DOT": 7.313e-05,
    "MEAN_MOTION_DDOT": 0.0,
    "TLE_LINE1": "1 54811U 22175BF  25315.08658709  .00007313  00000+0  47636-3 0  9997",
    "TLE_LINE2": "2 54811  53.2146 196.5943 0001761  99.2771 260.8421 15.08896879162293",
    "COMMENT": "Grouped by shell and plane from TLE"
  },
  {
    "OBJECT_NAME": "STARLINK-30122",
    "OBJECT_ID": "23067A",
    "EPOCH": "2025-11-11T00:38:48.824736",
    "MEAN_MOTION": 15.02541113,
    "ECCENTRICITY": 6.84e-05,
    "INCLINATION": 43.0027,
    "RA_OF_ASC_NODE": 199.7622,
    "ARG_OF_PERICENTER": 242.4005,
    "MEAN_ANOMALY": 117.6768,
    "EPHEMERIS_TYPE": 0,
    "CLASSIFICATION_TYPE": "U",
    "NORAD_CAT_ID": 56688,
    "ELEMENT_SET_NO": 999,
    "REV_AT_EPOCH": 13787,
    "BSTAR": 8.059500000000001e-05,
    "MEAN_MOTION_DOT": 8.86e-06,
    "MEAN_MOTION_DDOT": 0.0,
    "TLE_LINE1": "1 56688U 23067A   25315.02695399  .00000886  00000+0  80595-4 0  9992",
    "TLE_LINE2": "2 56688  43.0027 199.7622 0000684 242.4005 117.6768 15.02541113137877",
    "COMMENT": "Grouped by shell and plane from TLE"
  },
  {
    "OBJECT_NAME": "STARLINK-30129",
    "OBJECT_ID": "23067B",
    "EPOCH": "2025-11-11T00:24:25.334496",
    "MEAN_MOTION": 15.02546438,
    "ECCENTRICITY": 9.22e-05,
    "INCLINATION": 43.0029,
    "RA_OF_ASC_NODE": 199.6961,
    "ARG_OF_PERICENTER": 273.8301,
    "MEAN_ANOMALY": 86.2436,
    "EPHEMERIS_TYPE": 0,
    "CLASSIFICATION_TYPE": "U",
    "NORAD_CAT_ID": 56689,
    "ELEMENT_SET_NO": 999,
    "REV_AT_EPOCH": 13780,
    "BSTAR": 0.0001414,
    "MEAN_MOTION_DOT": 1.708e-05,
    "MEAN_MOTION_DDOT": 0.0,
    "TLE_LINE1": "1 56689U 23067B   25315.01695989  .00001708  00000+0  14140-3 0  9993",
    "TLE_LINE2": "2 56689  43.0029 199.6961 0000922 273.8301  86.2436 15.02546438137808",
    "COMMENT": "Grouped by shell and plane from TLE"
  },
  {
    "OBJECT_NAME": "STARLINK-30124",
    "OBJECT_ID": "23067C",
    "EPOCH": "2025-11-11T01:55:23.371104",
    "MEAN_MOTION": 15.0252846,
    "ECCENTRICITY": 6.17e-05,
    "INCLINATION": 43.0003,
    "RA_OF_ASC_NODE": 199.3193,
    "ARG_OF_PERICENTER": 269.3745,
    "MEAN_ANOMALY": 90.7026,
    "EPHEMERIS_TYPE": 0,
    "CLASSIFICATION_TYPE": "U",
    "NORAD_CAT_ID": 56690,
    "ELEMENT_SET_NO": 999,
    "REV_AT_EPOCH": 13781,
    "BSTAR": 0.00021279,
    "MEAN_MOTION_DOT": 2.671e-05,
    "MEAN_MOTION_DDOT": 0.0,
    "TLE_LINE1": "1 56690U 23067C   25315.08013161  .00002671  00000+0  21279-3 0  9999",
    "TLE_LINE2": "2 56690  43.0003 199.3193 0000617 269.3745  90.7026 15.02528460137810",
    "COMMENT": "Grouped by shell and plane from TLE"
  },
  {
    "OBJECT_NAME": "STARLINK-30036",
    "OBJECT_ID": "23067E",
    "EPOCH": "2025-11-11T01:45:46.872288",
    "MEAN_MOTION": 15.02547233,
    "ECCENTRICITY": 0.0001282,
    "INCLINATION": 43.006,
    "RA_OF_ASC_NODE": 199.2839,
    "ARG_OF_PERICENTER": 279.2392,
    "MEAN_ANOMALY": 80.8305,
    "EPHEMERIS_TYPE": 0,
    "CLASSIFICATION_TYPE": "U",
    "NORAD_CAT_ID": 56692,
    "ELEMENT_SET_NO": 999,
    "REV_AT_EPOCH": 13668,
    "BSTAR": 3.5976e-05,
    "MEAN_MOTION_DOT": 2.82e-06,
    "MEAN_MOTION_DDOT": 0.0,
    "TLE_LINE1": "1 56692U 23067E   25315.07345917  .00000282  00000+0  35976-4 0  9993",
    "TLE_LINE2": "2 56692  43.0060 199.2839 0001282 279.2392  80.8305 15.02547233136681",
    "COMMENT": "Grouped by shell and plane from TLE"
  },
  {
    "OBJECT_NAME": "STARLINK-30067",
    "OBJECT_ID": "23067F",
    "EPOCH": "2025-11-11T01:36:11.422368",
    "MEAN_MOTION": 15.02529078,
    "ECCENTRICITY": 5.82e-05,
    "INCLINATION": 43.0014,
    "RA_OF_ASC_NODE": 199.2358,
    "ARG_OF_PERICENTER": 267.6609,
    "MEAN_ANOMALY": 92.4167,
    "EPHEMERIS_TYPE": 0,
    "CLASSIFICATION_TYPE": "U",
    "NORAD_CAT_ID": 56693,
    "ELEMENT_SET_NO": 999,
    "REV_AT_EPOCH": 13781,
    "BSTAR": 6.9319e-05,
    "MEAN_MOTION_DOT": 7.33e-06,
    "MEAN_MOTION_DDOT": 0.0,
    "TLE_LINE1": "1 56693U 23067F   25315.06679887  .00000733  00000+0  69319-4 0  9998",
    "TLE_LINE2": "2 56693  43.0014 199.2358 0000582 267.6609  92.4167 15.02529078137819",
    "COMMENT": "Grouped by shell and plane from TLE"
  },
  {
    "OBJECT_NAME": "STARLINK-30126",
    "OBJECT_ID": "23067G",
    "EPOCH": "2025-11-11T00:05:23.180928",
    "MEAN_MOTION": 15.02429408,
    "ECCENTRICITY": 0.0001353,
    "INCLINATION": 43.0042,
    "RA_OF_ASC_NODE": 199.6189,
    "ARG_OF_PERICENTER": 233.4409,
    "MEAN_ANOMALY": 126.6309,
    "EPHEMERIS_TYPE": 0,
    "CLASSIFICATION_TYPE": "U",
    "NORAD_CAT_ID": 56694,
    "ELEMENT_SET_NO": 999,
    "REV_AT_EPOCH": 13780,
    "BSTAR": 0.0,
    "MEAN_MOTION_DOT": -0.00014166,
    "MEAN_MOTION_DDOT": 0.0,
    "TLE_LINE1": "1 56694U 23067G   25315.00374052 -.00014166  00000+0 -10386-2 0  9994",
    "TLE_LINE2": "2 56694  43.0042 199.6189 0001353 233.4409 126.6309 15.02429408137806",
    "COMMENT": "Grouped by shell and plane from TLE"
  },
  {
    "OBJECT_NAME": "STARLINK-30121",
    "OBJECT_ID": "23067H",
    "EPOCH": "2025-11-11T01:31:23.650752",
    "MEAN_MOTION": 15.02564583,
    "ECCENTRICITY": 0.000126,
    "INCLINATION": 43.0031,
    "RA_OF_ASC_NODE": 199.1885,
    "ARG_OF_PERICENTER": 267.3693,
    "MEAN_ANOMALY": 92.7005,
    "EPHEMERIS_TYPE": 0,
    "CLASSIFICATION_TYPE": "U",
    "NORAD_CAT_ID": 56695,
    "ELEMENT_SET_NO": 999,
    "REV_AT_EPOCH": 13781,
    "BSTAR": 0.0,
    "MEAN_MOTION_DOT": -5.71e-05,
    "MEAN_MOTION_DDOT": 0.0,
    "TLE_LINE1": "1 56695U 23067H   25315.06346818 -.00005710  00000+0 -40761-3 0  9996",
    "TLE_LINE2": "2 56695  43.0031 199.1885 0001260 267.3693  92.7005 15.02564583137812",
    "COMMENT": "Grouped by shell and plane from TLE"
  },
  {
    "OBJECT_NAME": "STARLINK-30130",
    "OBJECT_ID": "23067K",
    "EPOCH": "2025-11-11T04:04:25.563648",
    "MEAN_MOTION": 15.02585388,
    "ECCENTRICITY": 0.0001063,
    "INCLINATION": 43.0031,
    "RA_OF_ASC_NODE": 198.284,
    "ARG_OF_PERICENTER": 262.6353,
    "MEAN_ANOMALY": 97.4368,
    "EPHEMERIS_TYPE": 0,
    "CLASSIFICATION_TYPE": "U",
    "NORAD_CAT_ID": 56697,
    "ELEMENT_SET_NO": 999,
    "REV_AT_EPOCH": 13757,
    "BSTAR": 0.00053956,
    "MEAN_MOTION_DOT": 7.102e-05,
    "MEAN_MOTION_DDOT": 0.0,
    "TLE_LINE1": "1 56697U 23067K   25315.16974032  .00007102  00000+0  53956-3 0  9999",
    "TLE_LINE2": "2 56697  43.0031 198.2840 0001063 262.6353  97.4368 15.02585388137570",
    "COMMENT": "Grouped by shell and plane from TLE"
  }
]